{
    "links": {
        "self": "http://www.neowsapp.com/rest/v1/neo/54054681?api_key=iIulBulltgU6a56xZRHN4H3l9WmuAYTsLGpBGhQ2"
    },
    "id": "54054681",
    "neo_reference_id": "54054681",
    "name": "(2020 SQ5)",
    "designation": "2020 SQ5",
    "nasa_jpl_url": "http://ssd.jpl.nasa.gov/sbdb.cgi?sstr=54054681",
    "absolute_magnitude_h": 26.437,
    "estimated_diameter": {
        "kilometers": {
            "estimated_diameter_min": 0.0137137105,
            "estimated_diameter_max": 0.0306647889
        },
        "meters": {
            "estimated_diameter_min": 13.7137104826,
            "estimated_diameter_max": 30.6647888629
        },
        "miles": {
            "estimated_diameter_min": 0.008521302,
            "estimated_diameter_max": 0.0190542105
        },
        "feet": {
            "estimated_diameter_min": 44.9924898999,
            "estimated_diameter_max": 100.6062658931
        }
    },
    "is_potentially_hazardous_asteroid": false,
    "close_approach_data": [
        {
            "close_approach_date": "2020-09-20",
            "close_approach_date_full": "2020-Sep-20 10:22",
            "epoch_date_close_approach": 1600597320000,
            "relative_velocity": {
                "kilometers_per_second": "11.3076334105",
                "kilometers_per_hour": "40707.4802776776",
                "miles_per_hour": "25294.0451758714"
            },
            "miss_distance": {
                "astronomical": "0.0104247624",
                "lunar": "4.0552325736",
                "kilometers": "1559522.250296088",
                "miles": "969042.1912504944"
            },
            "orbiting_body": "Earth"
        }
    ],
    "orbital_data": {
        "orbit_id": "1",
        "orbit_determination_date": "2020-09-27 10:12:11",
        "first_observation_date": "2020-09-22",
        "last_observation_date": "2020-09-27",
        "data_arc_in_days": 5,
        "observations_used": 15,
        "orbit_uncertainty": "8",
        "minimum_orbit_intersection": ".00987246",
        "jupiter_tisserand_invariant": "4.104",
        "epoch_osculation": "2459115.5",
        "eccentricity": ".4571422447119784",
        "semi_major_axis": "1.673494308451914",
        "inclination": "9.497210762541075",
        "ascending_node_longitude": ".8900749102028767",
        "orbital_period": "790.7419627572937",
        "perihelion_distance": ".9084693637734862",
        "perihelion_argument": "310.0721996880792",
        "aphelion_distance": "2.438519253130342",
        "perihelion_time": "2459076.328841998570",
        "mean_anomaly": "17.83339894008266",
        "mean_motion": ".4552686172676239",
        "equinox": "J2000",
        "orbit_class": {
            "orbit_class_type": "APO",
            "orbit_class_description": "Near-Earth asteroid orbits which cross the Earth’s orbit similar to that of 1862 Apollo",
            "orbit_class_range": "a (semi-major axis) > 1.0 AU; q (perihelion) < 1.017 AU"
        }
    },
    "is_sentry_object": false
}